CUTE-1 (CO-55)          
1 27844U 03031E   26157.49994928  .00000321  00000+0  15775-3 0  9990
2 27844  98.6735 166.1932 0008850 210.1158 149.9513 14.24329258190150
CUBESAT XI-IV (CO-57)   
1 27848U 03031J   26157.27219909  .00000276  00000+0  14040-3 0  9992
2 27848  98.6767 165.6897 0008444 231.2681 128.7744 14.23615092189823
CUBESAT XI-V            
1 28895U 05043F   26156.37597232  .00001533  00000+0  24897-3 0  9996
2 28895  98.2974 311.7509 0012981 240.3240 119.6675 14.72598573100013
CUTE-1.7+APD II (CO-65) 
1 32785U 08021C   26157.57563362  .00006593  00000+0  41667-3 0  9993
2 32785  97.8270 138.7746 0010440  69.9058 290.3293 15.09348625983597
CANX-2                  
1 32790U 08021H   26157.45507638  .00004265  00000+0  30028-3 0  9993
2 32790  97.8636 137.0258 0012253  82.6024 277.6594 15.05539893983191
SEEDS II (CO-66)        
1 32791U 08021J   26157.49303268  .00023772  00000+0  76135-3 0  9994
2 32791  97.7514 154.8835 0002666  34.8036 325.3378 15.32382342985652
SWISSCUBE               
1 35932U 09051B   26156.46919883  .00001141  00000+0  23506-3 0  9990
2 35932  98.4043  64.1532 0005430 246.3597 113.7034 14.62458715887444
BEESAT-1                
1 35933U 09051C   26157.49935830  .00000984  00000+0  20750-3 0  9997
2 35933  98.3972  64.8591 0003907 259.6670 100.4090 14.61703523887627
ITUPSAT1                
1 35935U 09051E   26155.69953963  .00000958  00000+0  20796-3 0  9997
2 35935  98.4056  62.2366 0006134 280.9538  79.0971 14.60421767886916
TISAT 1                 
1 36799U 10035E   26157.59792820  .00026808  00000+0  88731-3 0  9999
2 36799  98.0706 103.2111 0000138  29.3325 330.7922 15.31304535866085
AEROCUBE 4.5A           
1 38767U 12048K   26157.10560387  .00391799  62769-4  14146-2 0  9997
2 38767  64.6266  67.2252 0019485 215.0043 144.9836 15.88053967370893
STRAND-1                
1 39090U 13009E   26157.47347652  .00000310  00000+0  11849-3 0  9992
2 39090  98.3920 337.9718 0007399 262.0579  97.9768 14.37156962695528
BRITE-AUSTRIA           
1 39091U 13009F   26157.48173248  .00000193  00000+0  80228-4 0  9999
2 39091  98.3993 337.1828 0008960 272.5368  87.4793 14.36537859695518
NEE-01 PEGASO           
1 39151U 13018B   26157.61390503  .00004027  00000+0  38676-3 0  9995
2 39151  98.1214 301.4159 0012357 192.5106 167.5808 14.93609178709123
POPACS 2                
1 39269U 13055E   26157.30492959  .00014801  00000+0  25275-3 0  9992
2 39269  80.9907 156.6473 0417228 228.7564 127.7006 14.90950807661597
POPACS 3                
1 39270U 13055F   26157.53663306  .00013078  00000+0  30827-3 0  9999
2 39270  81.0014 240.7315 0553014 102.3954 263.9684 14.55915409637008
ZACUBE-1 (TSHEPISOSAT)  
1 39417U 13066B   26157.14228711  .00005332  00000+0  41430-3 0  9994
2 39417  97.8103 119.4196 0039944 286.6860  72.9981 15.01117522679070
WNISAT-1                
1 39423U 13066H   26157.16227705  .00000787  00000+0  15245-3 0  9999
2 39423  97.7191 307.1019 0161673 266.6015  91.6681 14.58045873665124
TRITON-1                
1 39427U 13066M   26157.55802306  .00002034  00000+0  24851-3 0  9992
2 39427  97.8250  67.6066 0088405 269.0723  90.0360 14.81665737672510
GOMX-1                  
1 39430U 13066Q   26157.49512722  .00002095  00000+0  31827-3 0  9997
2 39430  97.6489 358.6317 0130116 111.5398 249.9736 14.69418430668344
CUBEBUG-2 (LO-74)       
1 39440U 13066AA  26156.80918561  .00005560  00000+0  51354-3 0  9990
2 39440  97.8908 105.7402 0059434  65.9901 294.7524 14.93668030675299
NEE-02 KRYSAOR          
1 39441U 13066AB  26157.10320968  .00002852  00000+0  31498-3 0  9991
2 39441  97.8890  96.3978 0067671 105.6781 255.1914 14.86571757674556
FUNCUBE-1 (AO-73)       
1 39444U 13066AE  26157.18462751  .00009267  00000+0  57636-3 0  9998
2 39444  97.8278 128.4023 0034656 239.5624 120.2179 15.09358417678008
UWE-3                   
1 39446U 13066AG  26157.38723772  .00005411  00000+0  46489-3 0  9996
2 39446  97.8694 113.3898 0049054 357.6101   2.4878 14.96939694675961
BRITE-CA1 (TORONTO)     
1 40020U 14033L   26157.64225058  .00000796  00000+0  12740-3 0  9998
2 40020  97.9728 286.7655 0077538 311.3532  48.1023 14.72662532640665
DUCHIFAT-1              
1 40021U 14033M   26157.14150127  .00131825  00000+0  14668-2 0  9996
2 40021  98.0474 214.7704 0004492 136.7008 223.4602 15.62418709654029
NANOSATC-BR1            
1 40024U 14033Q   26157.35799066  .00024085  00000+0  80247-3 0  9999
2 40024  98.0724 188.7897 0003364 195.2164 164.8974 15.31110174652325
QB50P1                  
1 40025U 14033R   26157.27496853  .00010939  00000+0  53962-3 0  9996
2 40025  98.0970 167.6573 0007005 259.7165 100.3278 15.18093440651376
QB50P2                  
1 40032U 14033Y   26157.53306444  .00009475  00000+0  51058-3 0  9996
2 40032  98.0755 153.7512 0006814 199.4615 160.6356 15.15021893651052
PERSEUS-M2              
1 40037U 14033AD  26157.62539389  .00002208  00000+0  20478-3 0  9996
2 40037  97.9977 107.9516 0011412 344.0551  16.0308 14.95484272649209
